STARLINK-1322
1 15552C 20025X   21326.15192640 -.00003285  00000-0 -77478-4 0  3263
2 15552  53.0564 277.8817 0001289 121.9921 205.0875 15.41317737    18
